ONEWEB-0700             
1 61606U 24188N   26154.16737781 -.00000512  00000+0 -15034-2 0  9994
2 61606  87.8862  38.9644 0001532 102.2191 257.9108 13.10372340 81466
ONEWEB-0701             
1 61607U 24188P   26154.18398332 -.00000144  00000+0 -44999-3 0  9996
2 61607  87.8854  39.0530 0001093  97.3532 262.7720 13.10377629 81479
ONEWEB-0702             
1 61608U 24188Q   26154.13352582 -.00000370  00000+0 -10788-2 0  9998
2 61608  87.8921  23.7824 0001428 120.7094 239.4175 13.11418528 82647
ONEWEB-0704             
1 61609U 24188R   26154.17236103 -.00000651  00000+0 -19003-2 0  9994
2 61609  87.8858  39.0437 0001580 118.3008 241.8279 13.10375876 81451
ONEWEB-0705             
1 61610U 24188S   26154.17733256 -.00000531  00000+0 -15586-2 0  9996
2 61610  87.8856  39.0489 0002369 106.8931 253.2456 13.10375104 73629
ONEWEB-0706             
1 61611U 24188T   26154.23875829 -.00000514  00000+0 -15088-2 0  9995
2 61611  87.8841  39.0428 0001725 102.3989 257.7331 13.10371345 81551
ONEWEB-0707             
1 61612U 24188U   26154.16903740 -.00000553  00000+0 -16211-2 0  9994
2 61612  87.8853  39.0498 0001633  99.6577 260.4735 13.10372558 81489
ONEWEB-0708             
1 61613U 24188V   26154.18730756  .00000030  00000+0  49281-4 0  9995
2 61613  87.8852  39.0654 0002266  90.8633 269.2754 13.10378477 81464
