[{"OBJECT_NAME":"ONEWEB-0700","OBJECT_ID":"2024-188N","EPOCH":"2026-06-03T04:01:01.442784","MEAN_MOTION":13.1037234,"ECCENTRICITY":0.0001532,"INCLINATION":87.8862,"RA_OF_ASC_NODE":38.9644,"ARG_OF_PERICENTER":102.2191,"MEAN_ANOMALY":257.9108,"EPHEMERIS_TYPE":0,"CLASSIFICATION_TYPE":"U","NORAD_CAT_ID":61606,"ELEMENT_SET_NO":999,"REV_AT_EPOCH":8146,"BSTAR":-0.0015034,"MEAN_MOTION_DOT":-5.12e-06,"MEAN_MOTION_DDOT":0.0},{"OBJECT_NAME":"ONEWEB-0701","OBJECT_ID":"2024-188P","EPOCH":"2026-06-03T04:24:56.158848","MEAN_MOTION":13.10377629,"ECCENTRICITY":0.0001093,"INCLINATION":87.8854,"RA_OF_ASC_NODE":39.053,"ARG_OF_PERICENTER":97.3532,"MEAN_ANOMALY":262.772,"EPHEMERIS_TYPE":0,"CLASSIFICATION_TYPE":"U","NORAD_CAT_ID":61607,"ELEMENT_SET_NO":999,"REV_AT_EPOCH":8147,"BSTAR":-0.00044999,"MEAN_MOTION_DOT":-1.44e-06,"MEAN_MOTION_DDOT":0.0},{"OBJECT_NAME":"ONEWEB-0702","OBJECT_ID":"2024-188Q","EPOCH":"2026-06-03T03:12:16.630848","MEAN_MOTION":13.11418528,"ECCENTRICITY":0.0001428,"INCLINATION":87.8921,"RA_OF_ASC_NODE":23.7824,"ARG_OF_PERICENTER":120.7094,"MEAN_ANOMALY":239.4175,"EPHEMERIS_TYPE":0,"CLASSIFICATION_TYPE":"U","NORAD_CAT_ID":61608,"ELEMENT_SET_NO":999,"REV_AT_EPOCH":8264,"BSTAR":-0.0010788,"MEAN_MOTION_DOT":-3.7e-06,"MEAN_MOTION_DDOT":0.0},{"OBJECT_NAME":"ONEWEB-0704","OBJECT_ID":"2024-188R","EPOCH":"2026-06-03T04:08:11.992992","MEAN_MOTION":13.10375876,"ECCENTRICITY":0.000158,"INCLINATION":87.8858,"RA_OF_ASC_NODE":39.0437,"ARG_OF_PERICENTER":118.3008,"MEAN_ANOMALY":241.8279,"EPHEMERIS_TYPE":0,"CLASSIFICATION_TYPE":"U","NORAD_CAT_ID":61609,"ELEMENT_SET_NO":999,"REV_AT_EPOCH":8145,"BSTAR":-0.0019003000000000002,"MEAN_MOTION_DOT":-6.51e-06,"MEAN_MOTION_DDOT":0.0},{"OBJECT_NAME":"ONEWEB-0705","OBJECT_ID":"2024-188S","EPOCH":"2026-06-03T04:15:21.533184","MEAN_MOTION":13.10375104,"ECCENTRICITY":0.0002369,"INCLINATION":87.8856,"RA_OF_ASC_NODE":39.0489,"ARG_OF_PERICENTER":106.8931,"MEAN_ANOMALY":253.2456,"EPHEMERIS_TYPE":0,"CLASSIFICATION_TYPE":"U","NORAD_CAT_ID":61610,"ELEMENT_SET_NO":999,"REV_AT_EPOCH":7362,"BSTAR":-0.0015586,"MEAN_MOTION_DOT":-5.31e-06,"MEAN_MOTION_DDOT":0.0},{"OBJECT_NAME":"ONEWEB-0706","OBJECT_ID":"2024-188T","EPOCH":"2026-06-03T05:43:48.716256","MEAN_MOTION":13.10371345,"ECCENTRICITY":0.0001725,"INCLINATION":87.8841,"RA_OF_ASC_NODE":39.0428,"ARG_OF_PERICENTER":102.3989,"MEAN_ANOMALY":257.7331,"EPHEMERIS_TYPE":0,"CLASSIFICATION_TYPE":"U","NORAD_CAT_ID":61611,"ELEMENT_SET_NO":999,"REV_AT_EPOCH":8155,"BSTAR":-0.0015087999999999998,"MEAN_MOTION_DOT":-5.14e-06,"MEAN_MOTION_DDOT":0.0},{"OBJECT_NAME":"ONEWEB-0707","OBJECT_ID":"2024-188U","EPOCH":"2026-06-03T04:03:24.831360","MEAN_MOTION":13.10372558,"ECCENTRICITY":0.0001633,"INCLINATION":87.8853,"RA_OF_ASC_NODE":39.0498,"ARG_OF_PERICENTER":99.6577,"MEAN_ANOMALY":260.4735,"EPHEMERIS_TYPE":0,"CLASSIFICATION_TYPE":"U","NORAD_CAT_ID":61612,"ELEMENT_SET_NO":999,"REV_AT_EPOCH":8148,"BSTAR":-0.0016211,"MEAN_MOTION_DOT":-5.53e-06,"MEAN_MOTION_DDOT":0.0},{"OBJECT_NAME":"ONEWEB-0708","OBJECT_ID":"2024-188V","EPOCH":"2026-06-03T04:29:43.373184","MEAN_MOTION":13.10378477,"ECCENTRICITY":0.0002266,"INCLINATION":87.8852,"RA_OF_ASC_NODE":39.0654,"ARG_OF_PERICENTER":90.8633,"MEAN_ANOMALY":269.2754,"EPHEMERIS_TYPE":0,"CLASSIFICATION_TYPE":"U","NORAD_CAT_ID":61613,"ELEMENT_SET_NO":999,"REV_AT_EPOCH":8146,"BSTAR":4.9281000000000005e-05,"MEAN_MOTION_DOT":3e-07,"MEAN_MOTION_DDOT":0.0}]